NORAD_CAT_ID,OBJECT_NAME,OBJECT_TYPE,EPOCH,MEAN_MOTION,ECCENTRICITY,INCLINATION,RA_OF_ASC_NODE,ARG_OF_PERICENTER,MEAN_ANOMALY,BSTAR,MEAN_MOTION_DOT,MEAN_MOTION_DDOT,TLE_LINE0,TLE_LINE1,TLE_LINE2,SEMIMAJOR_AXIS,PERIOD,APOGEE,PERIGEE,DECAYED
51853.0,STARLINK-3539,PAYLOAD,2022-08-07 22:00:00,15.08855657,0.0003193,53.2152,138.9215,64.7054,65.7278,-0.0015494,-0.00024876,0.0,0 STARLINK-3539,1 51853U 22022B   22219.91667824 -.00024876  00000-0 -15494-2 0  9993,2 51853  53.2152 138.9215 0003193  64.7054  65.7278 15.08855657  1302,6917.833000000001,95.437,541.906,537.489,0.0
51853.0,STARLINK-3539,PAYLOAD,2022-08-08 14:00:01,15.08860082,0.0003091,53.2151,135.928,65.5209,88.2088,0.00048306,7.412e-05,0.0,0 STARLINK-3539,1 51853U 22022B   22220.58335648  .00007412  00000-0  48306-3 0  9998,2 51853  53.2151 135.9280 0003091  65.5209  88.2088 15.08860082  1305,6917.819,95.436,541.822,537.5459999999998,0.0
51853.0,STARLINK-3539,PAYLOAD,2022-08-08 22:00:00,15.08879299,0.0003103,53.2154,134.4324,65.3007,99.9881,-0.0033369,-0.00053067,0.0,0 STARLINK-3539,1 51853U 22022B   22220.91667824 -.00053067  00000-0 -33369-2 0  9990,2 51853  53.2154 134.4324 0003103  65.3007  99.9881 15.08879299  1309,6917.76,95.435,541.7719999999998,537.479,0.0
51853.0,STARLINK-3539,PAYLOAD,2022-08-09 14:00:01,15.08791805,0.0002878,53.2156,131.4388,64.1923,124.31,0.0026674,0.00042365,0.0,0 STARLINK-3539,1 51853U 22022B   22221.58334491  .00042365  00000-0  26674-2 0  9993,2 51853  53.2156 131.4388 0002878  64.1923 124.3100 15.08791805  1303,6918.028,95.441,541.884,537.9019999999998,0.0
51853.0,STARLINK-3539,PAYLOAD,2022-08-09 22:00:00,15.08842368,0.0002951,53.2159,129.9435,63.8806,136.1693,-0.0040376999999999,-0.00063988,0.0,0 STARLINK-3539,1 51853U 22022B   22221.91667824 -.00063988  00000-0 -40377-2 0  9991,2 51853  53.2159 129.9435 0002951  63.8806 136.1693 15.08842368 25528,6917.873000000001,95.437,541.78,537.697,0.0
51853.0,STARLINK-3539,PAYLOAD,2022-08-10 14:00:01,15.08786773,0.0002856999999999,53.2163,126.95,64.5742,158.6074,0.0029662,0.00047168,0.0,0 STARLINK-3539,1 51853U 22022B   22222.58334491  .00047168  00000-0  29662-2 0  9990,2 51853  53.2163 126.9500 0002857  64.5742 158.6074 15.08786773  1304,6918.043000000002,95.441,541.885,537.932,0.0
51853.0,STARLINK-3539,PAYLOAD,2022-08-10 17:07:18,15.08802663,0.0002911,53.2165,126.3661,66.2987,143.7569,0.0019016999999999,0.00030077,0.0,0 STARLINK-3539,1 51853U 22022B   22222.71341435  .00030077  00000-0  19017-2 0  9995,2 51853  53.2165 126.3661 0002911  66.2987 143.7569 15.08802663 25643,6917.995,95.44,541.873,537.846,0.0
51853.0,STARLINK-3539,PAYLOAD,2022-08-10 22:00:00,15.08826499,0.0002985,53.2165,125.4549,64.2217,170.5061,-0.001126,-0.00018159,0.0,0 STARLINK-3539,1 51853U 22022B   22222.91667824 -.00018159  00000-0 -11260-2 0  9991,2 51853  53.2165 125.4549 0002985  64.2217 170.5061 15.08826499  1308,6917.922,95.438,541.852,537.722,0.0
51853.0,STARLINK-3539,PAYLOAD,2022-08-11 14:00:01,15.08807121,0.0002927,53.2167,122.4612,66.689,191.1937,0.0031260999999999,0.00049773,0.0,0 STARLINK-3539,1 51853U 22022B   22223.58334491  .00049773  00000-0  31261-2 0  9993,2 51853  53.2167 122.4612 0002927  66.6890 191.1937 15.08807121  1309,6917.981,95.44,541.871,537.821,0.0
51853.0,STARLINK-3539,PAYLOAD,2022-08-11 22:00:00,15.08848545,0.000303,53.2168,120.9661,65.8089,203.6497,-0.0010414999999999,-0.00016831,0.0,0 STARLINK-3539,1 51853U 22022B   22223.91667824 -.00016831  00000-0 -10415-2 0  9998,2 51853  53.2168 120.9661 0003030  65.8089 203.6497 15.08848545 25822,6917.854,95.437,541.815,537.623,0.0
51853.0,STARLINK-3539,PAYLOAD,2022-08-12 14:00:01,15.08835668,0.0002927,53.2167,117.9721,69.2281,223.4524,0.0035826,0.00057188,0.0,0 STARLINK-3539,1 51853U 22022B   22224.58334491  .00057188  00000-0  35826-2 0  9994,2 51853  53.2167 117.9721 0002927  69.2281 223.4524 15.08835668  1300,6917.894,95.438,541.783,537.734,0.0
51853.0,STARLINK-3539,PAYLOAD,2022-08-12 22:00:01,15.08889144,0.0002957,53.2167,116.477,67.2887,237.0627,-0.0041801,-0.00066298,0.0,0 STARLINK-3539,1 51853U 22022B   22224.91668981 -.00066298  00000-0 -41801-2 0  9999,2 51853  53.2167 116.4770 0002957  67.2887 237.0627 15.08889144  1304,6917.73,95.434,541.641,537.55,0.0
51853.0,STARLINK-3539,PAYLOAD,2022-08-13 06:00:02,15.08862105,0.0002852,53.2162,114.9808,64.8467,251.1264,-0.0029808,-0.00047448,0.0,0 STARLINK-3539,1 51853U 22022B   22225.25002315 -.00047448  00000-0 -29808-2 0  9999,2 51853  53.2162 114.9808 0002852  64.8467 251.1264 15.08862105 26023,6917.813,95.436,541.651,537.705,0.0
51853.0,STARLINK-3539,PAYLOAD,2022-08-13 14:00:01,15.0879883,0.0002717,53.2162,113.4829,70.3632,257.1538,0.0033461,0.0005331,0.0,0 STARLINK-3539,1 51853U 22022B   22225.58334491  .00053310  00000-0  33461-2 0  9991,2 51853  53.2162 113.4829 0002717  70.3632 257.1538 15.08798830  1303,6918.005999999999,95.44,541.751,537.992,0.0
51853.0,STARLINK-3539,PAYLOAD,2022-08-13 22:00:00,15.08839247,0.000281,53.2164,111.9873,68.1203,270.9656,-0.0010974,-0.00017712,0.0,0 STARLINK-3539,1 51853U 22022B   22225.91667824 -.00017712  00000-0 -10974-2 0  9999,2 51853  53.2164 111.9873 0002810  68.1203 270.9656 15.08839247  1302,6917.8830000000025,95.438,541.692,537.804,0.0
51853.0,STARLINK-3539,PAYLOAD,2022-08-14 14:00:01,15.08823341,0.0002714,53.2155,108.9935,72.9447,289.3381,0.0034155,0.00054467,0.0,0 STARLINK-3539,1 51853U 22022B   22226.58334491  .00054467  00000-0  34155-2 0  9997,2 51853  53.2155 108.9935 0002714  72.9447 289.3381 15.08823341 26239,6917.931,95.439,541.674,537.919,0.0
51853.0,STARLINK-3539,PAYLOAD,2022-08-14 22:00:00,15.08870909,0.000277,53.2154,107.4986,69.7989,304.0809,-0.0038564999999999,-0.000612,0.0,0 STARLINK-3539,1 51853U 22022B   22226.91667824 -.00061200  00000-0 -38565-2 0  9997,2 51853  53.2154 107.4986 0002770  69.7989 304.0809 15.08870909  1308,6917.786,95.436,541.567,537.735,0.0
51853.0,STARLINK-3539,PAYLOAD,2022-08-15 06:00:00,15.08843315,0.0002699,53.215,106.0019,68.2858,317.1952,-0.00089837,-0.0001456,0.0,0 STARLINK-3539,1 51853U 22022B   22227.25001157 -.00014560  00000-0 -89837-3 0  9992,2 51853  53.2150 106.0019 0002699  68.2858 317.1952 15.08843315 26330,6917.87,95.437,541.602,537.868,0.0
51853.0,STARLINK-3539,PAYLOAD,2022-08-15 14:00:01,15.088158800000002,0.0002643,53.2149,104.504,74.1353,322.9413,0.0030395,0.00048388,0.0,0 STARLINK-3539,1 51853U 22022B   22227.58334491  .00048388  00000-0  30395-2 0  9995,2 51853  53.2149 104.5040 0002643  74.1353 322.9413 15.08815880  1302,6917.954000000002,95.439,541.648,537.991,0.0
51853.0,STARLINK-3539,PAYLOAD,2022-08-15 22:00:00,15.08857365,0.0002714,53.215,103.0092,70.524,338.1397,-0.0037941,-0.000602,0.0,0 STARLINK-3539,1 51853U 22022B   22227.91667824 -.00060200  00000-0 -37941-2 0  9994,2 51853  53.2150 103.0092 0002714  70.5240 338.1397 15.08857365  1303,6917.8269999999975,95.436,541.57,537.815,0.0
51853.0,STARLINK-3539,PAYLOAD,2022-08-16 06:00:02,15.08835714,0.000262,53.2148,101.5122,68.9989,351.3165,-0.0011489,-0.00018526,0.0,0 STARLINK-3539,1 51853U 22022B   22228.25002315 -.00018526  00000-0 -11489-2 0  9993,2 51853  53.2148 101.5122 0002620  68.9989 351.3165 15.08835714 26484,6917.893,95.438,541.571,537.946,0.0
51853.0,STARLINK-3539,PAYLOAD,2022-08-16 14:00:01,15.08812326,0.0002601,53.2149,100.0144,74.6389,357.1998,0.0028026999999999,0.00044567,0.0,0 STARLINK-3539,1 51853U 22022B   22228.58334491  .00044567  00000-0  28027-2 0  9990,2 51853  53.2149 100.0144 0002601  74.6389 357.1998 15.08812326  1306,6917.965,95.439,541.629,538.031,0.0
51853.0,STARLINK-3539,PAYLOAD,2022-08-16 22:00:00,15.0884047,0.000272,53.215,98.5197,71.038,12.3816,-0.0007264,-0.00011831,0.0,0 STARLINK-3539,1 51853U 22022B   22228.91667824 -.00011831  00000-0 -72640-3 0  9997,2 51853  53.2150  98.5197 0002720  71.0380  12.3816 15.08840470 26588,6917.879,95.438,541.626,537.862,0.0
51853.0,STARLINK-3539,PAYLOAD,2022-08-17 16:00:00,15.0883869,0.0002595,53.2157,95.1498,75.756,123.7574,-0.00049026,-8.083e-05,0.0,0 STARLINK-3539,1 51853U 22022B   22229.66667824 -.00008083  00000-0 -49026-3 0  9997,2 51853  53.2157  95.1498 0002595  75.7560 123.7574 15.08838690  1305,6917.884,95.438,541.545,537.9540000000002,0.0
51853.0,STARLINK-3539,PAYLOAD,2022-08-18 08:00:01,15.08854746,0.0002551,53.2159,92.1585,72.4883,150.2414,-0.0007212,-0.00011753,0.0,0 STARLINK-3539,1 51853U 22022B   22230.33334491 -.00011753  00000-0 -72120-3 0  9993,2 51853  53.2159  92.1585 0002551  72.4883 150.2414 15.08854746 26793,6917.835,95.437,541.465,537.936,0.0
51853.0,STARLINK-3539,PAYLOAD,2022-08-18 14:00:01,15.08843881,0.0002571,53.2162,91.0355,75.9334,65.5002,0.0019642,0.00031115,0.0,0 STARLINK-3539,1 51853U 22022B   22230.58334491  .00031115  00000-0  19642-2 0  9991,2 51853  53.2162  91.0355 0002571  75.9334  65.5002 15.08843881  1300,6917.869000000002,95.437,541.512,537.955,0.0
51853.0,STARLINK-3539,PAYLOAD,2022-08-18 22:00:00,15.08856292,0.0002581,53.2162,89.5409,71.1855,81.8654,-0.0019352,-0.00030971,0.0,0 STARLINK-3539,1 51853U 22022B   22230.91667824 -.00030971  00000-0 -19352-2 0  9996,2 51853  53.2162  89.5409 0002581  71.1855  81.8654 15.08856292  1303,6917.831,95.437,541.481,537.91,0.0
51853.0,STARLINK-3539,PAYLOAD,2022-08-19 14:00:01,15.08816847,0.0002367,53.2167,86.5465,76.3778,99.8627,0.0018909,0.00029915,0.0,0 STARLINK-3539,1 51853U 22022B   22231.58334491  .00029915  00000-0  18909-2 0  9992,2 51853  53.2167  86.5465 0002367  76.3778  99.8627 15.08816847  1301,6917.951,95.439,541.4540000000002,538.179,0.0
51853.0,STARLINK-3539,PAYLOAD,2022-08-19 22:00:00,15.08825047,0.0002429,53.2167,85.0519,71.0144,116.8032,7.4404e-05,8.96e-06,0.0,0 STARLINK-3539,1 51853U 22022B   22231.91667824  .00000896  00000-0  74404-4 0  9999,2 51853  53.2167  85.0519 0002429  71.0144 116.8032 15.08825047  1305,6917.926,95.439,541.471,538.111,0.0
